{
  "type": "FeatureCollection",
  "features": [
    {
      "type": "Feature",
      "properties": {
        "norad_id": 66562,
        "name": "STARLINK-35579",
        "group": "last-30-days",
        "lat": -16.457765395185735,
        "lon": -34.038378327806235,
        "alt_km": 416.31989382035044,
        "timestamp": "2025-12-11T15:53:38.293381+00:00",
        "meta_object_name": "STARLINK-35579",
        "meta_object_id": "2025-268F",
        "meta_epoch": "2025-12-11T06:00:02.999808",
        "meta_mean_motion": 15.5059452,
        "meta_eccentricity": 0.00016462,
        "meta_inclination": 43.0002,
        "meta_ra_of_asc_node": 129.8908,
        "meta_arg_of_pericenter": 269.2249,
        "meta_mean_anomaly": 151.5055,
        "meta_ephemeris_type": 0,
        "meta_classification_type": "U",
        "meta_norad_cat_id": 66562,
        "meta_element_set_no": 999,
        "meta_rev_at_epoch": 442,
        "meta_bstar": -0.00092012552,
        "meta_mean_motion_dot": -0.00053981,
        "meta_mean_motion_ddot": 0,
        "tle_line1": "1 66562U 25268F   25345.25003472 -.00053981  00000+0 -92013-3 0  9995",
        "tle_line2": "2 66562  43.0002 129.8908 0001646 269.2249 151.5055 15.50594520  4422"
      },
      "geometry": {
        "type": "Point",
        "coordinates": [
          -34.038378327806235,
          -16.457765395185735
        ]
      }
    },
    {
      "type": "Feature",
      "properties": {
        "norad_id": 66563,
        "name": "STARLINK-35437",
        "group": "last-30-days",
        "lat": -18.91179022429327,
        "lon": -30.958678998703142,
        "alt_km": 416.41691732995787,
        "timestamp": "2025-12-11T15:53:38.293391+00:00",
        "meta_object_name": "STARLINK-35437",
        "meta_object_id": "2025-268G",
        "meta_epoch": "2025-12-11T06:00:02.999808",
        "meta_mean_motion": 15.50594245,
        "meta_eccentricity": 0.00016471,
        "meta_inclination": 43.0001,
        "meta_ra_of_asc_node": 129.8815,
        "meta_arg_of_pericenter": 266.2104,
        "meta_mean_anomaly": 158.3514,
        "meta_ephemeris_type": 0,
        "meta_classification_type": "U",
        "meta_norad_cat_id": 66563,
        "meta_element_set_no": 999,
        "meta_rev_at_epoch": 442,
        "meta_bstar": -0.0008646968,
        "meta_mean_motion_dot": -0.0005077,
        "meta_mean_motion_ddot": 0,
        "tle_line1": "1 66563U 25268G   25345.25003472 -.00050770  00000+0 -86470-3 0  9999",
        "tle_line2": "2 66563  43.0001 129.8815 0001647 266.2104 158.3514 15.50594245  4426"
      },
      "geometry": {
        "type": "Point",
        "coordinates": [
          -30.958678998703142,
          -18.91179022429327
        ]
      }
    },
    {
      "type": "Feature",
      "properties": {
        "norad_id": 66564,
        "name": "STARLINK-35358",
        "group": "last-30-days",
        "lat": -20.121238753129163,
        "lon": -29.38350805564441,
        "alt_km": 416.49999481732993,
        "timestamp": "2025-12-11T15:53:38.293403+00:00",
        "meta_object_name": "STARLINK-35358",
        "meta_object_id": "2025-268H",
        "meta_epoch": "2025-12-11T06:00:02.999808",
        "meta_mean_motion": 15.50603503,
        "meta_eccentricity": 0.00017129,
        "meta_inclination": 43.0001,
        "meta_ra_of_asc_node": 129.8768,
        "meta_arg_of_pericenter": 267.1799,
        "meta_mean_anomaly": 159.2995,
        "meta_ephemeris_type": 0,
        "meta_classification_type": "U",
        "meta_norad_cat_id": 66564,
        "meta_element_set_no": 999,
        "meta_rev_at_epoch": 438,
        "meta_bstar": -0.0011770667,
        "meta_mean_motion_dot": -0.00068852,
        "meta_mean_motion_ddot": 0,
        "tle_line1": "1 66564U 25268H   25345.25003472 -.00068852  00000+0 -11771-2 0  9991",
        "tle_line2": "2 66564  43.0001 129.8768 0001712 267.1799 159.2995 15.50603503  4383"
      },
      "geometry": {
        "type": "Point",
        "coordinates": [
          -29.38350805564441,
          -20.121238753129163
        ]
      }
    },
    {
      "type": "Feature",
      "properties": {
        "norad_id": 66565,
        "name": "STARLINK-35893",
        "group": "last-30-days",
        "lat": -21.31683884448869,
        "lon": -27.783844697364795,
        "alt_km": 416.55301003964996,
        "timestamp": "2025-12-11T15:53:38.293413+00:00",
        "meta_object_name": "STARLINK-35893",
        "meta_object_id": "2025-268J",
        "meta_epoch": "2025-12-11T06:00:02.999808",
        "meta_mean_motion": 15.50603554,
        "meta_eccentricity": 0.00016818,
        "meta_inclination": 43.0002,
        "meta_ra_of_asc_node": 129.8716,
        "meta_arg_of_pericenter": 266.214,
        "meta_mean_anomaly": 162.1824,
        "meta_ephemeris_type": 0,
        "meta_classification_type": "U",
        "meta_norad_cat_id": 66565,
        "meta_element_set_no": 999,
        "meta_rev_at_epoch": 442,
        "meta_bstar": -0.0011072928,
        "meta_mean_motion_dot": -0.00064824,
        "meta_mean_motion_ddot": 0,
        "tle_line1": "1 66565U 25268J   25345.25003472 -.00064824  00000+0 -11073-2 0  9992",
        "tle_line2": "2 66565  43.0002 129.8716 0001681 266.2140 162.1824 15.50603554  4428"
      },
      "geometry": {
        "type": "Point",
        "coordinates": [
          -27.783844697364795,
          -21.31683884448869
        ]
      }
    },
    {
      "type": "Feature",
      "properties": {
        "norad_id": 66566,
        "name": "STARLINK-35871",
        "group": "last-30-days",
        "lat": -22.493597252919297,
        "lon": -26.162323789635973,
        "alt_km": 416.64698296259667,
        "timestamp": "2025-12-11T15:53:38.293422+00:00",
        "meta_object_name": "STARLINK-35871",
        "meta_object_id": "2025-268K",
        "meta_epoch": "2025-12-11T06:00:02.999808",
        "meta_mean_motion": 15.50592732,
        "meta_eccentricity": 0.0001604,
        "meta_inclination": 43.0002,
        "meta_ra_of_asc_node": 129.8667,
        "meta_arg_of_pericenter": 266.4357,
        "meta_mean_anomaly": 163.8813,
        "meta_ephemeris_type": 0,
        "meta_classification_type": "U",
        "meta_norad_cat_id": 66566,
        "meta_element_set_no": 999,
        "meta_rev_at_epoch": 442,
        "meta_bstar": -0.0008436311,
        "meta_mean_motion_dot": -0.00049546,
        "meta_mean_motion_ddot": 0,
        "tle_line1": "1 66566U 25268K   25345.25003472 -.00049546  00000+0 -84363-3 0  9990",
        "tle_line2": "2 66566  43.0002 129.8667 0001604 266.4357 163.8813 15.50592732  4422"
      },
      "geometry": {
        "type": "Point",
        "coordinates": [
          -26.162323789635973,
          -22.493597252919297
        ]
      }
    },
    {
      "type": "Feature",
      "properties": {
        "norad_id": 66567,
        "name": "STARLINK-35825",
        "group": "last-30-days",
        "lat": -23.654115183537442,
        "lon": -24.512102622972755,
        "alt_km": 416.7041673969461,
        "timestamp": "2025-12-11T15:53:38.293434+00:00",
        "meta_object_name": "STARLINK-35825",
        "meta_object_id": "2025-268L",
        "meta_epoch": "2025-12-11T06:00:02.999808",
        "meta_mean_motion": 15.50595572,
        "meta_eccentricity": 0.00016553,
        "meta_inclination": 43.0001,
        "meta_ra_of_asc_node": 129.8622,
        "meta_arg_of_pericenter": 267.4439,
        "meta_mean_anomaly": 164.787,
        "meta_ephemeris_type": 0,
        "meta_classification_type": "U",
        "meta_norad_cat_id": 66567,
        "meta_element_set_no": 999,
        "meta_rev_at_epoch": 442,
        "meta_bstar": -0.00090039912,
        "meta_mean_motion_dot": -0.0005284,
        "meta_mean_motion_ddot": 0,
        "tle_line1": "1 66567U 25268L   25345.25003472 -.00052840  00000+0 -90040-3 0  9991",
        "tle_line2": "2 66567  43.0001 129.8622 0001655 267.4439 164.7870 15.50595572  4429"
      },
      "geometry": {
        "type": "Point",
        "coordinates": [
          -24.512102622972755,
          -23.654115183537442
        ]
      }
    },
    {
      "type": "Feature",
      "properties": {
        "norad_id": 66568,
        "name": "STARLINK-35803",
        "group": "last-30-days",
        "lat": -24.79834509128642,
        "lon": -22.830808998405516,
        "alt_km": 416.7735701312149,
        "timestamp": "2025-12-11T15:53:38.293445+00:00",
        "meta_object_name": "STARLINK-35803",
        "meta_object_id": "2025-268M",
        "meta_epoch": "2025-12-11T06:00:02.999808",
        "meta_mean_motion": 15.5059949,
        "meta_eccentricity": 0.00015885,
        "meta_inclination": 43.0001,
        "meta_ra_of_asc_node": 129.8571,
        "meta_arg_of_pericenter": 266.2291,
        "meta_mean_anomaly": 167.9168,
        "meta_ephemeris_type": 0,
        "meta_classification_type": "U",
        "meta_norad_cat_id": 66568,
        "meta_element_set_no": 999,
        "meta_rev_at_epoch": 442,
        "meta_bstar": -0.00099968108,
        "meta_mean_motion_dot": -0.00058594,
        "meta_mean_motion_ddot": 0,
        "tle_line1": "1 66568U 25268M   25345.25003472 -.00058594  00000+0 -99968-3 0  9992",
        "tle_line2": "2 66568  43.0001 129.8571 0001588 266.2291 167.9168 15.50599490  4429"
      },
      "geometry": {
        "type": "Point",
        "coordinates": [
          -22.830808998405516,
          -24.79834509128642
        ]
      }
    }
  ]
}